CZ-2C R/B               
1 54039U 22132E   26012.73496024  .00031803  00000+0  43698-3 0  9994
2 54039  97.2949  14.5765 0017194 302.9181  57.0420 15.57075173181657
GSLV R/B                
1 54149U 22138AN  26012.01870449  .00003437  00000+0  30017-3 0  9993
2 54149  87.3830 185.3316 0021844   3.9626 356.1774 14.96323629175456
XRISM                   
1 57800U 23137A   26012.82553133  .00004793  00000+0  27618-3 0  9996
2 57800  31.0025 284.7874 0007932 201.1173 158.9139 15.10753290129336
ACS3                    
1 59588U 24077B   26012.86154028  .00011282  00000+0  94980-2 0  9995
2 59588  97.2428 326.5123 0060807 259.3398 100.0912 13.87093521 86456
SZ-21 MODULE            
1 66515U 25246C   26012.84038218  .00027649  00000+0  28253-3 0  9997
2 66515  41.4741 186.0642 0001671 152.3579 207.7351 15.64408479  9316
