CCSDS_OMM_VERS = 2.0
CREATION_DATE  = 
ORIGINATOR     = 

OBJECT_NAME    = CZ-2C R/B
OBJECT_ID      = 2022-132E
CENTER_NAME    = EARTH
REF_FRAME      = TEME
TIME_SYSTEM    = UTC
MEAN_ELEMENT_THEORY = SGP/SGP4

EPOCH          = 2026-01-12T17:38:20.564736
MEAN_MOTION    = 15.57075173
ECCENTRICITY   = .0017194
INCLINATION    = 97.2949
RA_OF_ASC_NODE = 14.5765
ARG_OF_PERICENTER = 302.9181
MEAN_ANOMALY   = 57.0420

EPHEMERIS_TYPE = 0
CLASSIFICATION_TYPE = U
NORAD_CAT_ID   = 54039
ELEMENT_SET_NO = 999
REV_AT_EPOCH   = 18165
BSTAR          = .43698E-3
MEAN_MOTION_DOT = .31803E-3
MEAN_MOTION_DDOT = 0

CCSDS_OMM_VERS = 2.0
CREATION_DATE  = 
ORIGINATOR     = 

OBJECT_NAME    = GSLV R/B
OBJECT_ID      = 2022-138AN
CENTER_NAME    = EARTH
REF_FRAME      = TEME
TIME_SYSTEM    = UTC
MEAN_ELEMENT_THEORY = SGP/SGP4

EPOCH          = 2026-01-12T00:26:56.067936
MEAN_MOTION    = 14.96323629
ECCENTRICITY   = .0021844
INCLINATION    = 87.3830
RA_OF_ASC_NODE = 185.3316
ARG_OF_PERICENTER = 3.9626
MEAN_ANOMALY   = 356.1774

EPHEMERIS_TYPE = 0
CLASSIFICATION_TYPE = U
NORAD_CAT_ID   = 54149
ELEMENT_SET_NO = 999
REV_AT_EPOCH   = 17545
BSTAR          = .3001729E-3
MEAN_MOTION_DOT = .3437E-4
MEAN_MOTION_DDOT = 0

CCSDS_OMM_VERS = 2.0
CREATION_DATE  = 
ORIGINATOR     = 

OBJECT_NAME    = XRISM
OBJECT_ID      = 2023-137A
CENTER_NAME    = EARTH
REF_FRAME      = TEME
TIME_SYSTEM    = UTC
MEAN_ELEMENT_THEORY = SGP/SGP4

EPOCH          = 2026-01-12T19:48:45.906912
MEAN_MOTION    = 15.10753290
ECCENTRICITY   = .0007932
INCLINATION    = 31.0025
RA_OF_ASC_NODE = 284.7874
ARG_OF_PERICENTER = 201.1173
MEAN_ANOMALY   = 158.9139

EPHEMERIS_TYPE = 0
CLASSIFICATION_TYPE = U
NORAD_CAT_ID   = 57800
ELEMENT_SET_NO = 999
REV_AT_EPOCH   = 12933
BSTAR          = .27618E-3
MEAN_MOTION_DOT = .4793E-4
MEAN_MOTION_DDOT = 0

CCSDS_OMM_VERS = 2.0
CREATION_DATE  = 
ORIGINATOR     = 

OBJECT_NAME    = ACS3
OBJECT_ID      = 2024-077B
CENTER_NAME    = EARTH
REF_FRAME      = TEME
TIME_SYSTEM    = UTC
MEAN_ELEMENT_THEORY = SGP/SGP4

EPOCH          = 2026-01-12T20:40:37.080192
MEAN_MOTION    = 13.87093521
ECCENTRICITY   = .0060807
INCLINATION    = 97.2428
RA_OF_ASC_NODE = 326.5123
ARG_OF_PERICENTER = 259.3398
MEAN_ANOMALY   = 100.0912

EPHEMERIS_TYPE = 0
CLASSIFICATION_TYPE = U
NORAD_CAT_ID   = 59588
ELEMENT_SET_NO = 999
REV_AT_EPOCH   = 8645
BSTAR          = .9498E-2
MEAN_MOTION_DOT = .11282E-3
MEAN_MOTION_DDOT = 0

CCSDS_OMM_VERS = 2.0
CREATION_DATE  = 
ORIGINATOR     = 

OBJECT_NAME    = SZ-21 MODULE
OBJECT_ID      = 2025-246C
CENTER_NAME    = EARTH
REF_FRAME      = TEME
TIME_SYSTEM    = UTC
MEAN_ELEMENT_THEORY = SGP/SGP4

EPOCH          = 2026-01-12T20:10:09.020352
MEAN_MOTION    = 15.64408479
ECCENTRICITY   = .0001671
INCLINATION    = 41.4741
RA_OF_ASC_NODE = 186.0642
ARG_OF_PERICENTER = 152.3579
MEAN_ANOMALY   = 207.7351

EPHEMERIS_TYPE = 0
CLASSIFICATION_TYPE = U
NORAD_CAT_ID   = 66515
ELEMENT_SET_NO = 999
REV_AT_EPOCH   = 931
BSTAR          = .28253E-3
MEAN_MOTION_DOT = .27649E-3
MEAN_MOTION_DDOT = 0

